     2              NAVIGATION DATA                         RINEX VERSION / TYPE
CCRINEXN V1.6.0 UX  CDDIS               09-MAY-16 15:33     PGM / RUN BY / DATE 
IGS BROADCAST EPHEMERIS FILE                                COMMENT             
    0.1304D-07  0.2235D-07 -0.5960D-07 -0.1192D-06          ION ALPHA           
    0.1004D+06  0.1147D+06 -0.1311D+06 -0.4588D+06          ION BETA            
   -0.931322574615D-09-0.799360577730D-14   233472     1896 DELTA-UTC: A0,A1,T,W
    17                                                      LEAP SECONDS        
                                                            END OF HEADER       
17 16  5  8 16  0  0.0-0.203615520150D-03-0.113686837722D-12 0.000000000000D+00
    0.130000000000D+02-0.831562500000D+02 0.385873200059D-08-0.733083086436D+00
   -0.437162816525D-05 0.109554147348D-01 0.114291906357D-04 0.515369423485D+04
    0.576000000000D+05-0.540167093277D-07-0.291504466390D+01 0.175088644028D-06
    0.976545607056D+00 0.170812500000D+03-0.192861935078D+01-0.786925635765D-08
   -0.107147320530D-11 0.100000000000D+01 0.189600000000D+04 0.000000000000D+00
    0.200000000000D+01 0.000000000000D+00-0.107102096081D-07 0.130000000000D+02
    0.504000000000D+05 0.000000000000D+00 0.000000000000D+00 0.000000000000D+00
18 16  5  8 16  0  0.0 0.513332895935D-03 0.420641299570D-11 0.000000000000D+00
    0.590000000000D+02-0.238125000000D+02 0.587774483167D-08 0.824217442182D+00
   -0.130198895931D-05 0.171360993991D-01 0.582076609135D-05 0.515367043877D+04
    0.576000000000D+05-0.255182385445D-06-0.897844766153D+00-0.372529029846D-08
    0.924817183651D+00 0.249968750000D+03-0.188934963367D+01-0.896465912832D-08
   -0.405731186047D-09 0.000000000000D+00 0.189600000000D+04 0.000000000000D+00
    0.200000000000D+01 0.000000000000D+00-0.121071934700D-07 0.590000000000D+02
    0.520500000000D+05 0.400000000000D+01 0.000000000000D+00 0.000000000000D+00
19 16  5  8 16  0  0.0-0.525706913322D-03 0.000000000000D+00 0.000000000000D+00
    0.880000000000D+02-0.940000000000D+02 0.376051378335D-08 0.239971456510D+01
   -0.520423054695D-05 0.107939802110D-01 0.120531767607D-04 0.515362606430D+04
    0.576000000000D+05-0.409781932831D-07-0.286624979940D+01-0.169500708580D-06
    0.973629649983D+00 0.155968750000D+03 0.757642243549D+00-0.753388524513D-08
    0.000000000000D+00 0.100000000000D+01 0.189600000000D+04 0.000000000000D+00
    0.200000000000D+01 0.000000000000D+00-0.149011611938D-07 0.880000000000D+02
    0.504780000000D+05 0.400000000000D+01 0.000000000000D+00 0.000000000000D+00
21 16  5  8 16  0  0.0-0.521949958056D-03-0.136424205266D-11 0.000000000000D+00
    0.810000000000D+02 0.260312500000D+02 0.519593071709D-08 0.170171396582D+01
    0.931322574616D-06 0.233584837988D-01 0.883266329765D-05 0.515361424255D+04
    0.576000000000D+05-0.689178705216D-07-0.194035865979D+01-0.556930899620D-06
    0.935918255152D+00 0.195875000000D+03-0.179366152701D+01-0.828248785601D-08
    0.690028742467D-09 0.000000000000D+00 0.189600000000D+04 0.000000000000D+00
    0.200000000000D+01 0.000000000000D+00-0.102445483208D-07 0.810000000000D+02
    0.504000000000D+05 0.400000000000D+01 0.000000000000D+00 0.000000000000D+00
22 16  5  8 16  0  0.0 0.346705317497D-03-0.795807864051D-11 0.000000000000D+00
    0.300000000000D+02-0.185937500000D+02 0.583524306130D-08-0.113301070969D+01
   -0.681728124618D-06 0.767090253066D-02 0.513717532158D-05 0.515381832123D+04
    0.576000000000D+05 0.447034835815D-07-0.897157687659D+00 0.171363353729D-06
    0.922709196233D+00 0.259093750000D+03-0.192837612895D+01-0.875536469608D-08
   -0.171792870148D-09 0.100000000000D+01 0.189600000000D+04 0.000000000000D+00
    0.200000000000D+01 0.000000000000D+00-0.176951289177D-07 0.300000000000D+02
    0.504180000000D+05 0.400000000000D+01 0.000000000000D+00 0.000000000000D+00
23 16  5  8 16  0  0.0-0.172882340848D-03-0.170530256582D-11 0.000000000000D+00
    0.820000000000D+02 0.375312500000D+02 0.461019203300D-08-0.203484847563D+01
    0.157207250595D-05 0.108594512567D-01 0.125169754028D-04 0.515368895149D+04
    0.576000000000D+05 0.707805156708D-07 0.179189936026D+00-0.115483999252D-06
    0.946598240313D+00 0.128468750000D+03-0.258484960417D+01-0.787139930395D-08
   -0.183221917643D-09 0.100000000000D+01 0.189600000000D+04 0.000000000000D+00
    0.200000000000D+01 0.000000000000D+00-0.200234353542D-07 0.820000000000D+02
    0.504180000000D+05 0.400000000000D+01 0.000000000000D+00 0.000000000000D+00
24 16  5  8 16  0  0.0-0.167260877788D-04-0.568434188608D-12 0.000000000000D+00
    0.440000000000D+02 0.136187500000D+03 0.495734935064D-08-0.263171828248D+01
    0.696070492268D-05 0.439702579752D-02 0.453926622868D-05 0.515362425995D+04
    0.576000000000D+05 0.000000000000D+00 0.120487872692D+01-0.800937414169D-07
    0.949552465860D+00 0.286937500000D+03 0.418298373566D+00-0.841320758672D-08
    0.340728478423D-09 0.000000000000D+00 0.189600000000D+04 0.000000000000D+00
    0.200000000000D+01 0.000000000000D+00 0.232830643654D-08 0.440000000000D+02
    0.504000000000D+05 0.400000000000D+01 0.000000000000D+00 0.000000000000D+00
25 16  5  8 16  0  0.0-0.167628284544D-03-0.704858393874D-11 0.000000000000D+00
    0.100000000000D+03-0.855937500000D+02 0.449268713845D-08 0.165548337142D+01
   -0.447966158390D-05 0.558986549731D-02 0.206753611565D-05 0.515375774383D+04
    0.576000000000D+05-0.210478901863D-06 0.227730563945D+01 0.689178705216D-07
    0.978470286449D+00 0.350812500000D+03 0.760972813549D+00-0.841320758672D-08
   -0.363586573412D-09 0.000000000000D+00 0.189600000000D+04 0.000000000000D+00
    0.200000000000D+01 0.000000000000D+00 0.558793544769D-08 0.100000000000D+03
    0.543300000000D+05 0.400000000000D+01 0.000000000000D+00 0.000000000000D+00
27 16  5  8 16  0  0.0 0.903466716409D-04 0.397903932026D-11 0.000000000000D+00
    0.980000000000D+02-0.123812500000D+03 0.384623163956D-08-0.711622291799D+00
   -0.648759305477D-05 0.363586773165D-02 0.116638839245D-04 0.515364802742D+04
    0.576000000000D+05 0.162050127983D-06-0.296480510115D+01-0.111758708954D-07
    0.971501857581D+00 0.162218750000D+03 0.261038035979D+00-0.772960768347D-08
   -0.138934358602D-09 0.000000000000D+00 0.189600000000D+04 0.000000000000D+00
    0.200000000000D+01 0.000000000000D+00 0.139698386192D-08 0.980000000000D+02
    0.566700000000D+05 0.400000000000D+01 0.000000000000D+00 0.000000000000D+00
28 16  5  8 16  0  0.0 0.521591864526D-03 0.261479726760D-11 0.000000000000D+00
    0.910000000000D+02-0.847187500000D+02 0.422374736460D-08 0.501993726511D-01
   -0.432692468166D-05 0.197532617021D-01 0.303424894810D-05 0.515362824249D+04
    0.576000000000D+05-0.227242708206D-06 0.235175283830D+01-0.931322574616D-08
    0.989494086618D+00 0.338781250000D+03-0.161755490588D+01-0.855964225774D-08
   -0.378587198248D-09 0.000000000000D+00 0.189600000000D+04 0.000000000000D+00
    0.200000000000D+01 0.000000000000D+00-0.111758708954D-07 0.910000000000D+02
    0.504000000000D+05 0.400000000000D+01 0.000000000000D+00 0.000000000000D+00
29 16  5  8 16  0  0.0 0.657179392874D-03 0.000000000000D+00 0.000000000000D+00
    0.370000000000D+02-0.953125000000D+02 0.367908181995D-08 0.163543684845D+01
   -0.496581196785D-05 0.101921532769D-02 0.129044055939D-04 0.515358537102D+04
    0.576000000000D+05-0.465661287308D-07-0.290534767338D+01 0.670552253723D-07
    0.977509158049D+00 0.137718750000D+03-0.300733172595D+00-0.756745807215D-08
    0.392873507616D-11 0.000000000000D+00 0.189600000000D+04 0.000000000000D+00
    0.200000000000D+01 0.000000000000D+00-0.102445483208D-07 0.370000000000D+02
    0.504000000000D+05 0.400000000000D+01 0.000000000000D+00 0.000000000000D+00
30 16  5  8 16  0  0.0 0.123533420265D-03 0.318323145621D-11 0.000000000000D+00
    0.101000000000D+03 0.121375000000D+03 0.495984942006D-08 0.287041907789D+01
    0.640563666821D-05 0.203300861176D-02 0.390037894249D-05 0.515361300087D+04
    0.576000000000D+05-0.111758708954D-06 0.129618010548D+01 0.186264514923D-07
    0.952194753385D+00 0.301875000000D+03 0.298990078640D+01-0.845178060871D-08
    0.354300477845D-09 0.100000000000D+01 0.189600000000D+04 0.000000000000D+00
    0.200000000000D+01 0.000000000000D+00 0.325962901115D-08 0.101000000000D+03
    0.504000000000D+05 0.000000000000D+00 0.000000000000D+00 0.000000000000D+00
31 16  5  8 16  0  0.0 0.269993674010D-03-0.181898940355D-11 0.000000000000D+00
    0.103000000000D+03 0.145625000000D+03 0.458197657200D-08 0.261475723806D+01
    0.762380659580D-05 0.817322486546D-02 0.485777854919D-05 0.515374443245D+04
    0.576000000000D+05-0.279396772385D-07 0.126102474160D+01 0.182539224625D-06
    0.971245557259D+00 0.292500000000D+03-0.399959114028D+00-0.822319967213D-08
    0.353586156854D-09 0.100000000000D+01 0.189600000000D+04 0.000000000000D+00
    0.200000000000D+01 0.000000000000D+00-0.135041773319D-07 0.103000000000D+03
    0.561000000000D+05 0.400000000000D+01 0.000000000000D+00 0.000000000000D+00
32 16  5  8 16  0  0.0-0.317720696330D-05-0.534328137292D-11 0.000000000000D+00
    0.790000000000D+02 0.537812500000D+02 0.433482341994D-08-0.332171140216D+00
    0.276602804661D-05 0.308168353513D-03 0.127796083689D-04 0.515360296440D+04
    0.576000000000D+05-0.167638063431D-07 0.175072648181D+00-0.596046447754D-07
    0.960259610096D+00 0.133906250000D+03-0.241373575714D+01-0.778996734055D-08
   -0.350728894981D-09 0.100000000000D+01 0.189600000000D+04 0.000000000000D+00
    0.200000000000D+01 0.000000000000D+00 0.465661287308D-09 0.790000000000D+02
    0.504180000000D+05 0.400000000000D+01 0.000000000000D+00 0.000000000000D+00
